QIANFAN-73              
1 63159U 25046A   26025.82161822  .00000284  00000+0  42159-3 0  9993
2 63159  88.9796 315.4684 0015630   3.5776 356.5484 13.50994510 53366
QIANFAN-74              
1 63160U 25046B   26025.80511793  .00000276  00000+0  40902-3 0  9994
2 63160  88.9795 315.3590 0001824  68.9543 291.1803 13.50991867 53427
QIANFAN-75              
1 63161U 25046C   26025.79225846  .00000266  00000+0  39359-3 0  9997
2 63161  88.9797 315.5945 0016942   6.0114 354.1238 13.50990482 53299
QIANFAN-76              
1 63162U 25046D   26025.78887830  .00000290  00000+0  43054-3 0  9998
2 63162  88.9796 315.5752 0014526   7.6406 352.4964 13.50997487 53303
QIANFAN-77              
1 63163U 25046E   26025.76400792  .00000682  00000+0  48696-3 0  9997
2 63163  88.9795 313.2239 0013588 310.6216  49.3778 13.96137924 54590
QIANFAN-78              
1 63164U 25046F   26025.75573259  .00000293  00000+0  43485-3 0  9995
2 63164  88.9795 315.4422 0015959   9.2162 350.9279 13.50996487 53373
QIANFAN-79              
1 63165U 25046G   26025.78440525  .00000288  00000+0  42695-3 0  9994
2 63165  88.9799 315.5485 0015621   7.6485 352.4902 13.50993592 53323
QIANFAN-80              
1 63166U 25046H   26025.80092336  .00000283  00000+0  42015-3 0  9992
2 63166  88.9796 315.2525 0014694  11.9934 348.1564 13.50996328 53482
